{"type": "FeatureCollection", "features": [ {"type": "Feature", "properties": {"norad_id": 66914, "name": "2025-284B", "group": "last-30-days", "lat": -24.49747014790968, "lon": 127.2857183362282, "alt_km": 514.1808190841348, "timestamp": "2025-12-11T05:00:25.077648+00:00", "meta": {"OBJECT_NAME": "2025-284B", "OBJECT_ID": "2025-284B", "EPOCH": "2025-12-10T22:47:30.977376", "MEAN_MOTION": 15.18863051, "ECCENTRICITY": 0.00082213, "INCLINATION": 80.4057, "RA_OF_ASC_NODE": 132.0345, "ARG_OF_PERICENTER": 252.5696, "MEAN_ANOMALY": 107.4633, "EPHEMERIS_TYPE": 0, "CLASSIFICATION_TYPE": "U", "NORAD_CAT_ID": 66914, "ELEMENT_SET_NO": 999, "REV_AT_EPOCH": 85, "BSTAR": 0.00068472394, "MEAN_MOTION_DOT": 0.00014314, "MEAN_MOTION_DDOT": 0}, "tle": {"line1": "1 66914U 25284B   25344.94966409  .00014314  00000+0  68472-3 0  9994", "line2": "2 66914  80.4057 132.0345 0008221 252.5696 107.4633 15.18863051   853"}}, "geometry": {"type": "Point", "coordinates": [127.2857183362282, -24.49747014790968]}}, {"type": "Feature", "properties": {"norad_id": 66915, "name": "HULIANWANG DIGUI-105", "group": "last-30-days", "lat": -0.10032954874659511, "lon": 123.43212406409457, "alt_km": 874.6802970525623, "timestamp": "2025-12-11T05:00:25.077658+00:00", "meta": {"OBJECT_NAME": "HULIANWANG DIGUI-105", "OBJECT_ID": "2025-285A", "EPOCH": "2025-12-10T23:53:17.350080", "MEAN_MOTION": 14.0546655, "ECCENTRICITY": 0.00081217, "INCLINATION": 50.0034, "RA_OF_ASC_NODE": 124.3877, "ARG_OF_PERICENTER": 276.8501, "MEAN_ANOMALY": 83.148, "EPHEMERIS_TYPE": 0, "CLASSIFICATION_TYPE": "U", "NORAD_CAT_ID": 66915, "ELEMENT_SET_NO": 999, "REV_AT_EPOCH": 66, "BSTAR": 1.517549e-05, "MEAN_MOTION_DOT": -1.27e-06, "MEAN_MOTION_DDOT": 0}, "tle": {"line1": "1 66915U 25285A   25344.99533970 -.00000127  00000+0  15175-4 0  9995", "line2": "2 66915  50.0034 124.3877 0008121 276.8501  83.1480 14.05466550   666"}}, "geometry": {"type": "Point", "coordinates": [123.43212406409457, -0.10032954874659511]}}, {"type": "Feature", "properties": {"norad_id": 66916, "name": "HULIANWANG DIGUI-106", "group": "last-30-days", "lat": 0.5443609718997141, "lon": 123.97296208075579, "alt_km": 875.0894347059821, "timestamp": "2025-12-11T05:00:25.077668+00:00", "meta": {"OBJECT_NAME": "HULIANWANG DIGUI-106", "OBJECT_ID": "2025-285B", "EPOCH": "2025-12-10T23:53:03.598656", "MEAN_MOTION": 14.055129, "ECCENTRICITY": 0.00069785, "INCLINATION": 50.0045, "RA_OF_ASC_NODE": 124.388, "ARG_OF_PERICENTER": 271.534, "MEAN_ANOMALY": 88.4766, "EPHEMERIS_TYPE": 0, "CLASSIFICATION_TYPE": "U", "NORAD_CAT_ID": 66916, "ELEMENT_SET_NO": 999, "REV_AT_EPOCH": 66, "BSTAR": 1.5288118e-05, "MEAN_MOTION_DOT": -1.27e-06, "MEAN_MOTION_DDOT": 0}, "tle": {"line1": "1 66916U 25285B   25344.99518054 -.00000127  00000+0  15288-4 0  9997", "line2": "2 66916  50.0045 124.3880 0006978 271.5340  88.4766 14.05512900   660"}}, "geometry": {"type": "Point", "coordinates": [123.97296208075579, 0.5443609718997141]}}, {"type": "Feature", "properties": {"norad_id": 66917, "name": "HULIANWANG DIGUI-107", "group": "last-30-days", "lat": 1.4886374634123, "lon": 124.76037921031181, "alt_km": 874.1055800472241, "timestamp": "2025-12-11T05:00:25.077680+00:00", "meta": {"OBJECT_NAME": "HULIANWANG DIGUI-107", "OBJECT_ID": "2025-285C", "EPOCH": "2025-12-10T23:52:43.434624", "MEAN_MOTION": 14.05578936, "ECCENTRICITY": 0.00075571, "INCLINATION": 50.001, "RA_OF_ASC_NODE": 124.3833, "ARG_OF_PERICENTER": 279.275, "MEAN_ANOMALY": 80.73, "EPHEMERIS_TYPE": 0, "CLASSIFICATION_TYPE": "U", "NORAD_CAT_ID": 66917, "ELEMENT_SET_NO": 999, "REV_AT_EPOCH": 66, "BSTAR": -6.47541e-07, "MEAN_MOTION_DOT": -1.53e-06, "MEAN_MOTION_DDOT": 0}, "tle": {"line1": "1 66917U 25285C   25344.99494716 -.00000153  00000+0 -64754-6 0  9990", "line2": "2 66917  50.0010 124.3833 0007557 279.2750  80.7300 14.05578936   665"}}, "geometry": {"type": "Point", "coordinates": [124.76037921031181, 1.4886374634123]}}, {"type": "Feature", "properties": {"norad_id": 66918, "name": "HULIANWANG DIGUI-108", "group": "last-30-days", "lat": 3.110788234554521, "lon": 126.12314459963018, "alt_km": 874.1516115170116, "timestamp": "2025-12-11T05:00:25.077690+00:00", "meta": {"OBJECT_NAME": "HULIANWANG DIGUI-108", "OBJECT_ID": "2025-285D", "EPOCH": "2025-12-10T18:45:02.064960", "MEAN_MOTION": 14.05703467, "ECCENTRICITY": 0.0006459, "INCLINATION": 50.0042, "RA_OF_ASC_NODE": 125.2547, "ARG_OF_PERICENTER": 273.5376, "MEAN_ANOMALY": 86.479, "EPHEMERIS_TYPE": 0, "CLASSIFICATION_TYPE": "U", "NORAD_CAT_ID": 66918, "ELEMENT_SET_NO": 999, "REV_AT_EPOCH": 63, "BSTAR": 8.350341e-06, "MEAN_MOTION_DOT": -1.38e-06, "MEAN_MOTION_DDOT": 0}, "tle": {"line1": "1 66918U 25285D   25344.78127390 -.00000138  00000+0  83503-5 0  9993", "line2": "2 66918  50.0042 125.2547 0006459 273.5376  86.4790 14.05703467   636"}}, "geometry": {"type": "Point", "coordinates": [126.12314459963018, 3.110788234554521]}}, {"type": "Feature", "properties": {"norad_id": 66919, "name": "HULIANWANG DIGUI-109", "group": "last-30-days", "lat": 3.3403502489760584, "lon": 126.31915167811624, "alt_km": 872.9530299224043, "timestamp": "2025-12-11T05:00:25.077701+00:00", "meta": {"OBJECT_NAME": "HULIANWANG DIGUI-109", "OBJECT_ID": "2025-285E", "EPOCH": "2025-12-10T23:52:03.967968", "MEAN_MOTION": 14.05714753, "ECCENTRICITY": 0.00078778, "INCLINATION": 50.0057, "RA_OF_ASC_NODE": 124.3859, "ARG_OF_PERICENTER": 285.8067, "MEAN_ANOMALY": 74.1969, "EPHEMERIS_TYPE": 0, "CLASSIFICATION_TYPE": "U", "NORAD_CAT_ID": 66919, "ELEMENT_SET_NO": 999, "REV_AT_EPOCH": 66, "BSTAR": -3.015352e-06, "MEAN_MOTION_DOT": -1.57e-06, "MEAN_MOTION_DDOT": 0}, "tle": {"line1": "1 66919U 25285E   25344.99449037 -.00000157  00000+0 -30154-5 0  9998", "line2": "2 66919  50.0057 124.3859 0007877 285.8067  74.1969 14.05714753   662"}}, "geometry": {"type": "Point", "coordinates": [126.31915167811624, 3.3403502489760584]}}, {"type": "Feature", "properties": {"norad_id": 66920, "name": "HULIANWANG DIGUI-110", "group": "last-30-days", "lat": 5.0758438942959, "lon": 127.78578485775854, "alt_km": 872.9504450051163, "timestamp": "2025-12-11T05:00:25.077711+00:00", "meta": {"OBJECT_NAME": "HULIANWANG DIGUI-110", "OBJECT_ID": "2025-285F", "EPOCH": "2025-12-10T23:51:27.029376", "MEAN_MOTION": 14.05850158, "ECCENTRICITY": 0.00058216, "INCLINATION": 50.009, "RA_OF_ASC_NODE": 124.3872, "ARG_OF_PERICENTER": 282.7262, "MEAN_ANOMALY": 77.2992, "EPHEMERIS_TYPE": 0, "CLASSIFICATION_TYPE": "U", "NORAD_CAT_ID": 66920, "ELEMENT_SET_NO": 999, "REV_AT_EPOCH": 66, "BSTAR": 0.00018622027, "MEAN_MOTION_DOT": 1.54e-06, "MEAN_MOTION_DDOT": 0}, "tle": {"line1": "1 66920U 25285F   25344.99406284  .00000154  00000+0  18622-3 0  9996", "line2": "2 66920  50.0090 124.3872 0005821 282.7262  77.2992 14.05850158   666"}}, "geometry": {"type": "Point", "coordinates": [127.78578485775854, 5.0758438942959]}}, {"type": "Feature", "properties": {"norad_id": 66921, "name": "HULIANWANG DIGUI-111", "group": "last-30-days", "lat": 5.539625516617581, "lon": 128.18003169937043, "alt_km": 872.1569528139762, "timestamp": "2025-12-11T05:00:25.077721+00:00", "meta": {"OBJECT_NAME": "HULIANWANG DIGUI-111", "OBJECT_ID": "2025-285G", "EPOCH": "2025-12-10T22:08:55.643136", "MEAN_MOTION": 14.05883929, "ECCENTRICITY": 0.0006973, "INCLINATION": 50.0105, "RA_OF_ASC_NODE": 124.6789, "ARG_OF_PERICENTER": 288.9998, "MEAN_ANOMALY": 71.0151, "EPHEMERIS_TYPE": 0, "CLASSIFICATION_TYPE": "U", "NORAD_CAT_ID": 66921, "ELEMENT_SET_NO": 999, "REV_AT_EPOCH": 65, "BSTAR": 0.00022293502, "MEAN_MOTION_DOT": 2.15e-06, "MEAN_MOTION_DDOT": 0}, "tle": {"line1": "1 66921U 25285G   25344.92286624  .00000215  00000+0  22294-3 0  9992", "line2": "2 66921  50.0105 124.6789 0006973 288.9998  71.0151 14.05883929   657"}}, "geometry": {"type": "Point", "coordinates": [128.18003169937043, 5.539625516617581]}}, {"type": "Feature", "properties": {"norad_id": 66922, "name": "HULIANWANG DIGUI-112", "group": "last-30-days", "lat": 7.052850262411013, "lon": 129.46428549982485, "alt_km": 871.1826034555233, "timestamp": "2025-12-11T05:00:25.077731+00:00", "meta": {"OBJECT_NAME": "HULIANWANG DIGUI-112", "OBJECT_ID": "2025-285H", "EPOCH": "2025-12-10T23:50:44.844576", "MEAN_MOTION": 14.05998363, "ECCENTRICITY": 0.00069579, "INCLINATION": 50.0079, "RA_OF_ASC_NODE": 124.3826, "ARG_OF_PERICENTER": 295.5743, "MEAN_ANOMALY": 64.4443, "EPHEMERIS_TYPE": 0, "CLASSIFICATION_TYPE": "U", "NORAD_CAT_ID": 66922, "ELEMENT_SET_NO": 999, "REV_AT_EPOCH": 66, "BSTAR": -6.88589e-07, "MEAN_MOTION_DOT": -1.53e-06, "MEAN_MOTION_DDOT": 0}, "tle": {"line1": "1 66922U 25285H   25344.99357459 -.00000153  00000+0 -68859-6 0  9998", "line2": "2 66922  50.0079 124.3826 0006957 295.5743  64.4443 14.05998363   661"}}, "geometry": {"type": "Point", "coordinates": [129.46428549982485, 7.052850262411013]}}, {"type": "Feature", "properties": {"norad_id": 66923, "name": "HULIANWANG DIGUI-113", "group": "last-30-days", "lat": 7.83321246553017, "lon": 130.1336200637595, "alt_km": 871.6184074600551, "timestamp": "2025-12-11T05:00:25.077741+00:00", "meta": {"OBJECT_NAME": "HULIANWANG DIGUI-113", "OBJECT_ID": "2025-285J", "EPOCH": "2025-12-10T23:50:28.094208", "MEAN_MOTION": 14.06055344, "ECCENTRICITY": 0.0005389, "INCLINATION": 50.0077, "RA_OF_ASC_NODE": 124.3825, "ARG_OF_PERICENTER": 290.3963, "MEAN_ANOMALY": 69.6363, "EPHEMERIS_TYPE": 0, "CLASSIFICATION_TYPE": "U", "NORAD_CAT_ID": 66923, "ELEMENT_SET_NO": 999, "REV_AT_EPOCH": 66, "BSTAR": 0.00019415559, "MEAN_MOTION_DOT": 1.68e-06, "MEAN_MOTION_DDOT": 0}, "tle": {"line1": "1 66923U 25285J   25344.99338072  .00000168  00000+0  19416-3 0  9995", "line2": "2 66923  50.0077 124.3825 0005389 290.3963  69.6363 14.06055344   666"}}, "geometry": {"type": "Point", "coordinates": [130.1336200637595, 7.83321246553017]}}]}